[{"OBJECT_NAME":"AFR-1","OBJECT_ID":"2023-084AJ","EPOCH":"2026-03-09T23:02:07.499328","MEAN_MOTION":15.27543824,"ECCENTRICITY":0.00099838,"INCLINATION":97.6099,"RA_OF_ASC_NODE":203.4313,"ARG_OF_PERICENTER":334.9676,"MEAN_ANOMALY":25.1077,"EPHEMERIS_TYPE":0,"CLASSIFICATION_TYPE":"U","NORAD_CAT_ID":56964,"ELEMENT_SET_NO":999,"REV_AT_EPOCH":15207,"BSTAR":0.00024843733,"MEAN_MOTION_DOT":6.624e-5,"MEAN_MOTION_DDOT":0},{"OBJECT_NAME":"STARLINK-32829","OBJECT_ID":"2025-034W","EPOCH":"2026-03-09T23:13:03.328896","MEAN_MOTION":15.30206104,"ECCENTRICITY":0.00010361,"INCLINATION":53.1583,"RA_OF_ASC_NODE":270.0223,"ARG_OF_PERICENTER":79.4349,"MEAN_ANOMALY":280.6768,"EPHEMERIS_TYPE":0,"CLASSIFICATION_TYPE":"U","NORAD_CAT_ID":63049,"ELEMENT_SET_NO":999,"REV_AT_EPOCH":5894,"BSTAR":0.0012548863,"MEAN_MOTION_DOT":0.00036999,"MEAN_MOTION_DDOT":0}]
